start=new Date('2023-03-31T00:00:00.000Z').valueOf();
sats=[{"OBJECT_ID":"2022-125BD","TIME_SYSTEM":"UTC","OBJECT_NAME":"STARLINK-5055","CENTER_NAME":"EARTH","TLE_LINE2":"2 54015  53.2171 352.8613 0000920  90.0856 270.0241 15.08848867 27216","EPHEMERIS_TYPE":"0","COUNTRY_CODE":"US","REF_FRAME":"TEME","EPOCH":"2023-03-30T00:04:22.141056","DECAY_DATE":null,"FILE":"3875726","CLASSIFICATION_TYPE":"U","PERIOD":"95.437","MEAN_MOTION":"15.08848867","RA_OF_ASC_NODE":"352.8613","OBJECT_TYPE":"PAYLOAD","GP_ID":"229187287","MEAN_MOTION_DDOT":"0.0000000000000","LAUNCH_DATE":"2022-10-05","NORAD_CAT_ID":"54015","APOAPSIS":"540.355","SEMIMAJOR_AXIS":"6917.853","MEAN_MOTION_DOT":"0.00008382","RCS_SIZE":"LARGE","ECCENTRICITY":"0.00009200","SITE":"AFWTR","INCLINATION":"53.2171","MEAN_ELEMENT_THEORY":"SGP4","MEAN_ANOMALY":"270.0241","PERIAPSIS":"539.082","ARG_OF_PERICENTER":"90.0856","REV_AT_EPOCH":"2721","ELEMENT_SET_NO":"999","TLE_LINE1":"1 54015U 22125BD  23089.00303404  .00008382  00000-0  54399-3 0  9997","BSTAR":"0.00054399000000"},{"MEAN_ANOMALY":"271.8491","PERIAPSIS":"538.798","ELEMENT_SET_NO":"999","ARG_OF_PERICENTER":"88.2658","REV_AT_EPOCH":"2457","TLE_LINE1":"1 54051U 22136A   23089.83293367  .00000559  00000-0  53197-4 0  9990","BSTAR":"0.00005319700000","MEAN_MOTION_DOT":"0.00000559","RCS_SIZE":"LARGE","ECCENTRICITY":"0.00013630","SITE":"AFETR","INCLINATION":"53.2176","MEAN_ELEMENT_THEORY":"SGP4","RA_OF_ASC_NODE":"129.5832","MEAN_MOTION":"15.08841610","OBJECT_TYPE":"PAYLOAD","MEAN_MOTION_DDOT":"0.0000000000000","GP_ID":"229187020","LAUNCH_DATE":"2022-10-20","SEMIMAJOR_AXIS":"6917.875","APOAPSIS":"540.683","NORAD_CAT_ID":"54051","OBJECT_ID":"2022-136A","OBJECT_NAME":"STARLINK-5195","TIME_SYSTEM":"UTC","CENTER_NAME":"EARTH","EPHEMERIS_TYPE":"0","TLE_LINE2":"2 54051  53.2176 129.5832 0001363  88.2658 271.8491 15.08841610 24575","COUNTRY_CODE":"US","REF_FRAME":"TEME","DECAY_DATE":null,"EPOCH":"2023-03-30T19:59:25.469088","CLASSIFICATION_TYPE":"U","PERIOD":"95.437","FILE":"3875726"},{"OBJECT_ID":"2022-136B","TIME_SYSTEM":"UTC","OBJECT_NAME":"STARLINK-5189","CENTER_NAME":"EARTH","TLE_LINE2":"2 54052  53.2190  90.5379 0001440  95.3201 264.7955 15.08848941 25092","EPHEMERIS_TYPE":"0","COUNTRY_CODE":"US","REF_FRAME":"TEME","EPOCH":"2023-03-30T12:24:58.792032","DECAY_DATE":null,"FILE":"3875726","PERIOD":"95.437","CLASSIFICATION_TYPE":"U","MEAN_MOTION":"15.08848941","RA_OF_ASC_NODE":"90.5379","OBJECT_TYPE":"PAYLOAD","GP_ID":"229186289","MEAN_MOTION_DDOT":"0.0000000000000","LAUNCH_DATE":"2022-10-20","APOAPSIS":"540.714","NORAD_CAT_ID":"54052","SEMIMAJOR_AXIS":"6917.853","MEAN_MOTION_DOT":"0.00000657","RCS_SIZE":"LARGE","ECCENTRICITY":"0.00014400","SITE":"AFETR","INCLINATION":"53.2190","MEAN_ELEMENT_THEORY":"SGP4","MEAN_ANOMALY":"264.7955","PERIAPSIS":"538.722","REV_AT_EPOCH":"2509","ARG_OF_PERICENTER":"95.3201","ELEMENT_SET_NO":"999","TLE_LINE1":"1 54052U 22136B   23089.51734713  .00000657  00000-0  59330-4 0  9995","BSTAR":"0.00005933000000"},{"MEAN_ANOMALY":"282.3833","PERIAPSIS":"538.881","ARG_OF_PERICENTER":"77.7299","REV_AT_EPOCH":"2457","ELEMENT_SET_NO":"999","TLE_LINE1":"1 54053U 22136C   23089.82924986  .00002088  00000-0  14925-3 0  9993","BSTAR":"0.00014925000000","MEAN_MOTION_DOT":"0.00002088","RCS_SIZE":"LARGE","ECCENTRICITY":"0.00012500","SITE":"AFETR","INCLINATION":"53.2158","MEAN_ELEMENT_THEORY":"SGP4","RA_OF_ASC_NODE":"129.5632","MEAN_MOTION":"15.08839768","OBJECT_TYPE":"PAYLOAD","GP_ID":"229186040","MEAN_MOTION_DDOT":"0.0000000000000","LAUNCH_DATE":"2022-10-20","APOAPSIS":"540.611","NORAD_CAT_ID":"54053","SEMIMAJOR_AXIS":"6917.881","OBJECT_ID":"2022-136C","TIME_SYSTEM":"UTC","OBJECT_NAME":"STARLINK-5176","CENTER_NAME":"EARTH","TLE_LINE2":"2 54053  53.2158 129.5632 0001250  77.7299 282.3833 15.08839768 24572","EPHEMERIS_TYPE":"0","REF_FRAME":"TEME","COUNTRY_CODE":"US","EPOCH":"2023-03-30T19:54:07.187904","DECAY_DATE":null,"FILE":"3875726","PERIOD":"95.438","CLASSIFICATION_TYPE":"U"},{"MEAN_ELEMENT_THEORY":"SGP4","INCLINATION":"53.2164","SITE":"AFETR","ECCENTRICITY":"0.00007010","RCS_SIZE":"LARGE","MEAN_MOTION_DOT":"-0.00001200","BSTAR":"-0.00005733900000","TLE_LINE1":"1 54054U 22136D   23089.82187859 -.00001200  00000-0 -57339-4 0  9998","ARG_OF_PERICENTER":"104.2607","REV_AT_EPOCH":"2457","ELEMENT_SET_NO":"999","PERIAPSIS":"539.284","MEAN_ANOMALY":"255.8463","FILE":"3875726","PERIOD":"95.438","CLASSIFICATION_TYPE":"U","EPOCH":"2023-03-30T19:43:30.310176","DECAY_DATE":null,"REF_FRAME":"TEME","COUNTRY_CODE":"US","TLE_LINE2":"2 54054  53.2164 129.5174 0000701 104.2607 255.8463 15.08832304 24573","EPHEMERIS_TYPE":"0","CENTER_NAME":"EARTH","TIME_SYSTEM":"UTC","OBJECT_NAME":"STARLINK-5163","OBJECT_ID":"2022-136D","APOAPSIS":"540.254","NORAD_CAT_ID":"54054","SEMIMAJOR_AXIS":"6917.904","LAUNCH_DATE":"2022-10-20","GP_ID":"229187291","MEAN_MOTION_DDOT":"0.0000000000000","OBJECT_TYPE":"PAYLOAD","RA_OF_ASC_NODE":"129.5174","MEAN_MOTION":"15.08832304"},{"MEAN_ANOMALY":"270.7519","PERIAPSIS":"538.878","TLE_LINE1":"1 54055U 22136E   23089.82556589 -.00000282  00000-0  36548-6 0  9998","ELEMENT_SET_NO":"999","ARG_OF_PERICENTER":"89.3614","REV_AT_EPOCH":"2457","BSTAR":"0.00000036548000","RCS_SIZE":"LARGE","MEAN_MOTION_DOT":"-0.00000282","ECCENTRICITY":"0.00012290","INCLINATION":"53.2185","SITE":"AFETR","MEAN_ELEMENT_THEORY":"SGP4","OBJECT_TYPE":"PAYLOAD","RA_OF_ASC_NODE":"129.5410","MEAN_MOTION":"15.08845601","MEAN_MOTION_DDOT":"0.0000000000000","GP_ID":"229187520","SEMIMAJOR_AXIS":"6917.863","NORAD_CAT_ID":"54055","APOAPSIS":"540.578","LAUNCH_DATE":"2022-10-20","OBJECT_NAME":"STARLINK-5158","TIME_SYSTEM":"UTC","OBJECT_ID":"2022-136E","CENTER_NAME":"EARTH","COUNTRY_CODE":"US","REF_FRAME":"TEME","EPHEMERIS_TYPE":"0","TLE_LINE2":"2 54055  53.2185 129.5410 0001229  89.3614 270.7519 15.08845601 24579","CLASSIFICATION_TYPE":"U","PERIOD":"95.437","FILE":"3875726","DECAY_DATE":null,"EPOCH":"2023-03-30T19:48:48.892896"},{"RCS_SIZE":"LARGE","MEAN_MOTION_DOT":"-0.00000614","ECCENTRICITY":"0.00013580","INCLINATION":"53.2184","SITE":"AFETR","MEAN_ELEMENT_THEORY":"SGP4","MEAN_ANOMALY":"259.6249","PERIAPSIS":"538.796","TLE_LINE1":"1 54056U 22136F   23089.81915275 -.00000614  00000-0 -20470-4 0  9994","ELEMENT_SET_NO":"999","ARG_OF_PERICENTER":"100.4896","REV_AT_EPOCH":"2457","BSTAR":"-0.00002047000000","OBJECT_NAME":"STARLINK-5226","TIME_SYSTEM":"UTC","OBJECT_ID":"2022-136F","CENTER_NAME":"EARTH","REF_FRAME":"TEME","COUNTRY_CODE":"US","EPHEMERIS_TYPE":"0","TLE_LINE2":"2 54056  53.2184 129.4964 0001358 100.4896 259.6249 15.08843282 24571","PERIOD":"95.437","CLASSIFICATION_TYPE":"U","FILE":"3875726","DECAY_DATE":null,"EPOCH":"2023-03-30T19:39:34.797600","OBJECT_TYPE":"PAYLOAD","RA_OF_ASC_NODE":"129.4964","MEAN_MOTION":"15.08843282","MEAN_MOTION_DDOT":"0.0000000000000","GP_ID":"229185790","SEMIMAJOR_AXIS":"6917.870","APOAPSIS":"540.675","NORAD_CAT_ID":"54056","LAUNCH_DATE":"2022-10-20"},{"MEAN_ELEMENT_THEORY":"SGP4","SITE":"AFETR","INCLINATION":"53.2032","ECCENTRICITY":"0.00061000","MEAN_MOTION_DOT":"0.00421406","RCS_SIZE":"LARGE","BSTAR":"0.00093049000000","REV_AT_EPOCH":"130","ARG_OF_PERICENTER":"79.3869","ELEMENT_SET_NO":"999","TLE_LINE1":"1 54057U 22136G   23090.00001157  .00421406  84433-4  93049-3 0  9994","PERIAPSIS":"277.381","MEAN_ANOMALY":"319.1212","EPOCH":"2023-03-31T00:00:00.999648","DECAY_DATE":null,"FILE":"3875726","PERIOD":"90.143","CLASSIFICATION_TYPE":"U","TLE_LINE2":"2 54057  53.2032  68.3424 0006100  79.3869 319.1212 15.97469774  1306","EPHEMERIS_TYPE":"0","COUNTRY_CODE":"US","REF_FRAME":"TEME","CENTER_NAME":"EARTH","OBJECT_ID":"2022-136G","TIME_SYSTEM":"UTC","OBJECT_NAME":"STARLINK-5216","LAUNCH_DATE":"2022-10-20","NORAD_CAT_ID":"54057","APOAPSIS":"285.506","SEMIMAJOR_AXIS":"6659.578","GP_ID":"229186540","MEAN_MOTION_DDOT":"0.0000844330000","RA_OF_ASC_NODE":"68.3424","MEAN_MOTION":"15.97469774","OBJECT_TYPE":"PAYLOAD"},{"SEMIMAJOR_AXIS":"6917.830","NORAD_CAT_ID":"54058","APOAPSIS":"540.590","LAUNCH_DATE":"2022-10-20","MEAN_MOTION_DDOT":"0.0000000000000","GP_ID":"229186792","OBJECT_TYPE":"PAYLOAD","RA_OF_ASC_NODE":"130.6395","MEAN_MOTION":"15.08856362","CLASSIFICATION_TYPE":"U","PERIOD":"95.437","FILE":"3875726","DECAY_DATE":null,"EPOCH":"2023-03-30T13:06:02.627136","REF_FRAME":"TEME","COUNTRY_CODE":"US","EPHEMERIS_TYPE":"0","TLE_LINE2":"2 54058  53.2168 130.6395 0001293 102.7569 257.3567 15.08856362 24534","CENTER_NAME":"EARTH","OBJECT_NAME":"STARLINK-5167","TIME_SYSTEM":"UTC","OBJECT_ID":"2022-136H","BSTAR":"0.00157160000000","TLE_LINE1":"1 54058U 22136H   23089.54586374  .00024824  00000-0  15716-2 0  9992","ELEMENT_SET_NO":"999","ARG_OF_PERICENTER":"102.7569","REV_AT_EPOCH":"2453","PERIAPSIS":"538.801","MEAN_ANOMALY":"257.3567","MEAN_ELEMENT_THEORY":"SGP4","INCLINATION":"53.2168","SITE":"AFETR","ECCENTRICITY":"0.00012930","RCS_SIZE":"LARGE","MEAN_MOTION_DOT":"0.00024824"},{"INCLINATION":"53.2159","SITE":"AFETR","MEAN_ELEMENT_THEORY":"SGP4","RCS_SIZE":"LARGE","MEAN_MOTION_DOT":"0.00020091","ECCENTRICITY":"0.00015570","TLE_LINE1":"1 54059U 22136J   23089.81451130  .00020091  00000-0  12767-2 0  9999","ARG_OF_PERICENTER":"108.2767","REV_AT_EPOCH":"2457","ELEMENT_SET_NO":"999","BSTAR":"0.00127670000000","MEAN_ANOMALY":"251.8394","PERIAPSIS":"538.657","REF_FRAME":"TEME","COUNTRY_CODE":"US","TLE_LINE2":"2 54059  53.2159 129.4736 0001557 108.2767 251.8394 15.08843612 24579","EPHEMERIS_TYPE":"0","FILE":"3875726","CLASSIFICATION_TYPE":"U","PERIOD":"95.437","EPOCH":"2023-03-30T19:32:53.776320","DECAY_DATE":null,"TIME_SYSTEM":"UTC","OBJECT_NAME":"STARLINK-5173","OBJECT_ID":"2022-136J","CENTER_NAME":"EARTH","NORAD_CAT_ID":"54059","APOAPSIS":"540.811","SEMIMAJOR_AXIS":"6917.869","LAUNCH_DATE":"2022-10-20","OBJECT_TYPE":"PAYLOAD","RA_OF_ASC_NODE":"129.4736","MEAN_MOTION":"15.08843612","GP_ID":"229187021","MEAN_MOTION_DDOT":"0.0000000000000"}];
